NORAD_CAT_ID,OBJECT_NAME,OBJECT_TYPE,EPOCH,MEAN_MOTION,ECCENTRICITY,INCLINATION,RA_OF_ASC_NODE,ARG_OF_PERICENTER,MEAN_ANOMALY,BSTAR,MEAN_MOTION_DOT,MEAN_MOTION_DDOT,TLE_LINE0,TLE_LINE1,TLE_LINE2,SEMIMAJOR_AXIS,PERIOD,APOGEE,PERIGEE,DECAYED
56818.0,STARLINK-6028,PAYLOAD,2023-09-22 20:00:01,15.39993465,0.0003351,70.0001,92.3818,271.2694,325.3601,-0.024597,-0.00904986,0.0,0 STARLINK-6028,1 56818U 23078BD  23265.83334491 -.00904986  00000-0 -24597-1 0  9997,2 56818  70.0001  92.3818 0003351 271.2694 325.3601 15.39993465 18263,6824.266,93.507,448.417,443.844,0.0
56818.0,STARLINK-6028,PAYLOAD,2023-09-22 22:00:00,15.39822816,0.000351,70.0001,92.1578,272.9602,65.5085,-0.024216,-0.00887461,0.0,0 STARLINK-6028,1 56818U 23078BD  23265.91667824 -.00887461  00000-0 -24216-1 0  9991,2 56818  70.0001  92.1578 0003510 272.9602  65.5085 15.39822816  5860,6824.77,93.517,449.03,444.239,0.0
56818.0,STARLINK-6028,PAYLOAD,2023-09-23 12:00:00,15.38688736,0.0003464,70.0,90.5914,265.9571,63.9992,-0.025112,-0.00886637,0.0,0 STARLINK-6028,1 56818U 23078BD  23266.50001157 -.00886637  00000-0 -25112-1 0  9998,2 56818  70.0000  90.5914 0003464 265.9571  63.9992 15.38688736 18368,6828.123,93.586,452.353,447.623,0.0
56818.0,STARLINK-6028,PAYLOAD,2023-09-23 14:00:01,15.38553494,0.0003387,70.0001,90.3678,268.8925,162.5035,-0.026695,-0.00934132,0.0,0 STARLINK-6028,1 56818U 23078BD  23266.58334491 -.00934132  00000-0 -26695-1 0  9997,2 56818  70.0001  90.3678 0003387 268.8925 162.5035 15.38553494  5972,6828.523,93.594,452.701,448.075,0.0
56818.0,STARLINK-6028,PAYLOAD,2023-09-23 20:00:01,15.38037195,0.0003452,70.0,89.6974,272.4718,102.9879,-0.026188,-0.00903666,0.0,0 STARLINK-6028,1 56818U 23078BD  23266.83334491 -.00903666  00000-0 -26188-1 0  9990,2 56818  70.0000  89.6974 0003452 272.4718 102.9879 15.38037195 18417,6830.051,93.626,454.274,449.558,0.0
56818.0,STARLINK-6028,PAYLOAD,2023-09-24 12:00:00,15.36737173,0.0003303,69.9999,87.9124,268.5912,195.5007,-0.027036,-0.00895015,0.0,0 STARLINK-6028,1 56818U 23078BD  23267.50001157 -.00895015  00000-0 -27036-1 0  9996,2 56818  69.9999  87.9124 0003303 268.5912 195.5007 15.36737173 18519,6833.902,93.705,458.025,453.51,0.0
56818.0,STARLINK-6028,PAYLOAD,2023-09-24 14:00:01,15.36600623,0.0003254,70.0,87.6896,266.8617,298.0839,-0.028685,-0.00941253,0.0,0 STARLINK-6028,1 56818U 23078BD  23267.58334491 -.00941253  00000-0 -28685-1 0  9991,2 56818  70.0000  87.6896 0003254 266.8617 298.0839 15.36600623  5917,6834.307,93.713,458.396,453.948,0.0
56818.0,STARLINK-6028,PAYLOAD,2023-09-24 22:00:00,15.35905259,0.0003253,69.9997,86.7985,273.1898,334.7279,-0.02723,-0.00878885,0.0,0 STARLINK-6028,1 56818U 23078BD  23267.91667824 -.00878885  00000-0 -27230-1 0  9992,2 56818  69.9997  86.7985 0003253 273.1898 334.7279 15.35905259  5973,6836.37,93.756,460.459,456.011,0.0
56818.0,STARLINK-6028,PAYLOAD,2023-09-25 04:00:00,15.35451295,0.0003152,69.9994,86.1309,271.6937,277.9162,-0.030176,-0.0095306,0.0,0 STARLINK-6028,1 56818U 23078BD  23268.16667824 -.00953060  00000-0 -30176-1 0  9992,2 56818  69.9994  86.1309 0003152 271.6937 277.9162 15.35451295 18619,6837.717,93.784,461.738,457.427,0.0
56818.0,STARLINK-6028,PAYLOAD,2023-09-25 12:00:00,15.34787289,0.0003254,69.9996,85.2416,266.6947,324.4921,-0.029172,-0.00906047,0.0,0 STARLINK-6028,1 56818U 23078BD  23268.50001157 -.00906047  00000-0 -29172-1 0  9998,2 56818  69.9996  85.2416 0003254 266.6947 324.4921 15.34787289 18679,6839.689,93.824,463.78,459.329,0.0
56818.0,STARLINK-6028,PAYLOAD,2023-09-25 14:00:01,15.34647697,0.0003449,69.9997,85.0193,268.2717,63.2479,-0.030837,-0.00949583,0.0,0 STARLINK-6028,1 56818U 23078BD  23268.58335648 -.00949583  00000-0 -30837-1 0  9993,2 56818  69.9997  85.0193 0003449 268.2717  63.2479 15.34647697  6018,6840.104,93.833,464.328,459.61,0.0
56818.0,STARLINK-6028,PAYLOAD,2023-09-25 22:00:00,15.33950333,0.0003447,69.9992,84.1309,275.7609,96.3187,-0.029056,-0.00880849,0.0,0 STARLINK-6028,1 56818U 23078BD  23268.91667824 -.00880849  00000-0 -29056-1 0  9994,2 56818  69.9992  84.1309 0003447 275.7609  96.3187 15.33950333  6019,6842.177,93.875,466.401,461.684,0.0
56818.0,STARLINK-6028,PAYLOAD,2023-09-26 04:00:00,15.33491874,0.0003368,69.9991,83.4652,271.6341,40.3801,-0.03205,-0.00951121,0.0,0 STARLINK-6028,1 56818U 23078BD  23269.16667824 -.00951121  00000-0 -32050-1 0  9992,2 56818  69.9991  83.4652 0003368 271.6341  40.3801 15.33491874 18779,6843.541,93.903,467.711,463.101,0.0
56818.0,STARLINK-6028,PAYLOAD,2023-09-26 12:00:00,15.32835353,0.0003447,69.9995,82.5785,269.0238,82.2178,-0.031346,-0.00914349,0.0,0 STARLINK-6028,1 56818U 23078BD  23269.50001157 -.00914349  00000-0 -31346-1 0  9999,2 56818  69.9995  82.5785 0003447 269.0238  82.2178 15.32835353 18825,6845.495,93.944,469.719,465.0,0.0
56818.0,STARLINK-6028,PAYLOAD,2023-09-26 14:00:01,15.32690092,0.0003398,69.9994,82.3568,271.7379,179.2525,-0.032866,-0.00950933,0.0,0 STARLINK-6028,1 56818U 23078BD  23269.58335648 -.00950933  00000-0 -32866-1 0  9999,2 56818  69.9994  82.3568 0003398 271.7379 179.2525 15.32690092  5651,6845.927,93.952,470.118,465.466,0.0
56818.0,STARLINK-6028,PAYLOAD,2023-09-26 22:00:00,15.31989303,0.0003369,69.9991,81.4709,277.6474,211.5562,-0.030689,-0.00874939,0.0,0 STARLINK-6028,1 56818U 23078BD  23269.91667824 -.00874939  00000-0 -30689-1 0  9992,2 56818  69.9991  81.4709 0003369 277.6474 211.5562 15.31989303  5706,6848.015,93.995,472.187,467.573,0.0
56818.0,STARLINK-6028,PAYLOAD,2023-09-27 04:00:00,15.3152974,0.000342,69.999,80.8071,274.3716,153.0058,-0.033702,-0.0094109,0.0,0 STARLINK-6028,1 56818U 23078BD  23270.16667824 -.00941090  00000-0 -33702-1 0  9993,2 56818  69.9990  80.8071 0003420 274.3716 153.0058 15.31529740 18924,6849.385,94.024,473.592,468.907,0.0
56818.0,STARLINK-6028,PAYLOAD,2023-09-27 12:00:00,15.30880629,0.0003336,69.9993,79.9228,271.1323,193.124,-0.033454,-0.00917471,0.0,0 STARLINK-6028,1 56818U 23078BD  23270.50001157 -.00917471  00000-0 -33454-1 0  9992,2 56818  69.9993  79.9228 0003336 271.1323 193.1240 15.30880629 18973,6851.321,94.064,475.471,470.9,0.0
56818.0,STARLINK-6028,PAYLOAD,2023-09-27 14:00:01,15.30730816,0.000333,69.9994,79.7019,270.1075,293.2486,-0.034757,-0.00946135,0.0,0 STARLINK-6028,1 56818U 23078BD  23270.58334491 -.00946135  00000-0 -34757-1 0  9996,2 56818  69.9994  79.7019 0003330 270.1075 293.2486 15.30730816  5801,6851.768,94.073,475.914,471.351,0.0
56818.0,STARLINK-6028,PAYLOAD,2023-09-28 04:00:00,15.29571194,0.0003295,69.9989,78.1567,273.3385,262.3605,-0.03564,-0.00948575,0.0,0 STARLINK-6028,1 56818U 23078BD  23271.16667824 -.00948575  00000-0 -35640-1 0  9992,2 56818  69.9989  78.1567 0003295 273.3385 262.3605 15.29571194 19079,6855.23,94.144,479.354,474.836,0.0
56818.0,STARLINK-6028,PAYLOAD,2023-09-28 16:00:30,15.28601025,0.0003462,69.9994,76.8337,273.3413,135.7857,-0.036964,-0.00954414,0.0,0 STARLINK-6028,1 56818U 23078BD  23271.66702546 -.00954414  00000-0 -36964-1 0  9997,2 56818  69.9994  76.8337 0003462 273.3413 135.7857 15.28601025  5986,6858.13,94.204,482.37,477.621,0.0
56818.0,STARLINK-6028,PAYLOAD,2023-09-28 20:00:01,15.28241286,0.0003306,69.9994,76.3942,274.8076,329.2021,-0.034827,-0.00883163,0.0,0 STARLINK-6028,1 56818U 23078BD  23271.83334491 -.00883163  00000-0 -34827-1 0  9994,2 56818  69.9994  76.3942 0003306 274.8076 329.2021 15.28241286 19180,6859.207,94.226,483.339,478.804,0.0
56818.0,STARLINK-6028,PAYLOAD,2023-09-28 22:00:01,15.28081075,0.0003477,69.9993,76.1742,275.3667,67.0223,-0.035039,-0.0088414,0.0,0 STARLINK-6028,1 56818U 23078BD  23271.91668981 -.00884140  00000-0 -35039-1 0  9999,2 56818  69.9993  76.1742 0003477 275.3667  67.0223 15.28081075  6024,6859.686,94.236,483.936,479.166,0.0
56818.0,STARLINK-6028,PAYLOAD,2023-09-29 12:00:00,15.26970357,0.0003395,69.9997,74.6354,267.6642,41.5012,-0.037991,-0.00934715,0.0,0 STARLINK-6028,1 56818U 23078BD  23272.50001157 -.00934715  00000-0 -37991-1 0  9994,2 56818  69.9997  74.6354 0003395 267.6642  41.5012 15.26970357 19289,6863.012,94.304,487.207,482.547,0.0
56818.0,STARLINK-6028,PAYLOAD,2023-09-29 14:00:01,15.26818811,0.0003439,69.9997,74.4158,271.7824,135.3105,-0.039459,-0.00964051,0.0,0 STARLINK-6028,1 56818U 23078BD  23272.58334491 -.00964051  00000-0 -39459-1 0  9999,2 56818  69.9997  74.4158 0003439 271.7824 135.3105 15.26818811  6014,6863.466,94.314,487.692,482.971,0.0
56818.0,STARLINK-6028,PAYLOAD,2023-09-30 06:00:00,15.25454496,0.0003279,69.9997,72.6611,271.8479,196.9204,-0.0371,-0.00865788,0.0,0 STARLINK-6028,1 56818U 23078BD  23273.25001157 -.00865788  00000-0 -37100-1 0  9992,2 56818  69.9997  72.6611 0003279 271.8479 196.9204 15.25454496  5967,6867.558,94.398,491.675,487.171,0.0
56818.0,STARLINK-6028,PAYLOAD,2023-09-30 12:00:00,15.25017033,0.000344,70.0,72.004,270.5457,130.5127,-0.040684,-0.00942919,0.0,0 STARLINK-6028,1 56818U 23078BD  23273.50001157 -.00942919  00000-0 -40684-1 0  9993,2 56818  70.0000  72.0040 0003440 270.5457 130.5127 15.25017033 19434,6868.871,94.425,493.099,488.373,0.0
56818.0,STARLINK-6028,PAYLOAD,2023-10-01 14:00:01,15.22899477,0.0003279,70.0004,69.1624,271.467,311.2026,-0.044081,-0.00957783,0.0,0 STARLINK-6028,1 56818U 23078BD  23274.58334491 -.00957783  00000-0 -44081-1 0  9992,2 56818  70.0004  69.1624 0003279 271.4670 311.2026 15.22899477  5966,6875.237,94.556,499.357,494.848,0.0
56818.0,STARLINK-6028,PAYLOAD,2023-10-01 20:00:01,15.22368461,0.0003263,70.0004,68.508,278.0196,234.6303,-0.041177,-0.00885973,0.0,0 STARLINK-6028,1 56818U 23078BD  23274.83334491 -.00885973  00000-0 -41177-1 0  9994,2 56818  70.0004  68.5080 0003263 278.0196 234.6303 15.22368461 19633,6876.836,94.589,500.945,496.457,0.0
56818.0,STARLINK-6028,PAYLOAD,2023-10-01 22:00:00,15.22220362,0.0003323,70.0002,68.29,275.793,333.4091,-0.042525,-0.00909232,0.0,0 STARLINK-6028,1 56818U 23078BD  23274.91667824 -.00909232  00000-0 -42525-1 0  9995,2 56818  70.0002  68.2900 0003323 275.7930 333.4091 15.22220362  6024,6877.282,94.599,501.432,496.862,0.0
